0 COSMOS 1275 DEB
1 12694U 81053AN  13282.35661000  .00000044  00000-0  39991-4 0  9078
2 12694 083.0814 143.6736 0117513 299.0900 185.4430 13.59168661593182
0 COSMOS 1275 DEB
1 12694U 81053AN  13287.07447035  .00000246  00000-0  30252-3 0  9098
2 12694 083.0804 140.3382 0117489 286.0923 230.1364 13.59171527593825
0 COSMOS 1275 DEB
1 12694U 81053AN  13289.12976799  .00000287  00000-0  35564-3 0  9108
2 12694 083.0801 138.8849 0117517 280.4265 206.8125 13.59173375594101
0 COSMOS 1275 DEB
1 12694U 81053AN  13292.00642528  .00000338  00000-0  42167-3 0  9114
2 12694 083.0801 136.8508 0117575 272.5034 242.4614 13.59175419594493
0 COSMOS 1275 DEB
1 12694U 81053AN  13294.35438956  .00000337  00000-0  42049-3 0  9121
2 12694 083.0802 135.1902 0117513 266.0232 211.2118 13.59176734594814
